{
  "norad_id": 66009,
  "name": "STARLINK-35276",
  "history": [
    {
      "epoch": "2026-05-05T16:39:49.654944Z",
      "apogee_km": 475.8459752804356,
      "perigee_km": 474.56851191342867,
      "latitude_deg": -1.959712536021601e-05,
      "longitude_deg": 85.5758583045706,
      "height_km": 475.84666284261965,
      "semi_major_axis_km": 6853.344243596932,
      "eccentricity": 9.32e-05,
      "inclination_deg": 53.1561,
      "raan_deg": 199.0984,
      "arg_perigee_deg": 66.0971,
      "mean_anomaly_deg": 294.0127,
      "mean_motion_rev_day": 15.30202621
    },
    {
      "epoch": "2026-05-06T14:36:35.016768Z",
      "apogee_km": 475.9398591361851,
      "perigee_km": 474.5568459720398,
      "latitude_deg": -1.8742047653567444e-05,
      "longitude_deg": 111.24026036439199,
      "height_km": 476.16972347542287,
      "semi_major_axis_km": 6853.385352554112,
      "eccentricity": 0.0001009,
      "inclination_deg": 53.1565,
      "raan_deg": 194.8531,
      "arg_perigee_deg": 91.9326,
      "mean_anomaly_deg": 268.179,
      "mean_motion_rev_day": 15.30188853
    },
    {
      "epoch": "2026-05-07T14:07:22.810080Z",
      "apogee_km": 475.8560029977816,
      "perigee_km": 474.55660910695406,
      "latitude_deg": -4.7352906385444906e-05,
      "longitude_deg": 113.02334079151831,
      "height_km": 476.02995223894845,
      "semi_major_axis_km": 6853.343306052368,
      "eccentricity": 9.48e-05,
      "inclination_deg": 53.1579,
      "raan_deg": 190.301,
      "arg_perigee_deg": 83.4017,
      "mean_anomaly_deg": 276.7091,
      "mean_motion_rev_day": 15.30202935
    },
    {
      "epoch": "2026-05-08T10:30:04.060800Z",
      "apogee_km": 475.83264453035736,
      "perigee_km": 474.5264024009857,
      "latitude_deg": 4.801491610608089e-06,
      "longitude_deg": 162.5703991318546,
      "height_km": 475.9924888729032,
      "semi_major_axis_km": 6853.316523465672,
      "eccentricity": 9.53e-05,
      "inclination_deg": 53.1574,
      "raan_deg": 186.3568,
      "arg_perigee_deg": 82.4978,
      "mean_anomaly_deg": 277.6131,
      "mean_motion_rev_day": 15.30211905
    },
    {
      "epoch": "2026-05-09T10:00:51.962112Z",
      "apogee_km": 475.886954549841,
      "perigee_km": 474.55466179193354,
      "latitude_deg": -7.038592571266956e-05,
      "longitude_deg": 164.35409474331976,
      "height_km": 476.1609388882772,
      "semi_major_axis_km": 6853.357808170887,
      "eccentricity": 9.72e-05,
      "inclination_deg": 53.1585,
      "raan_deg": 181.8058,
      "arg_perigee_deg": 93.5979,
      "mean_anomaly_deg": 266.5132,
      "mean_motion_rev_day": 15.30198078
    },
    {
      "epoch": "2026-05-10T09:31:40.158912Z",
      "apogee_km": 476.06284399171,
      "perigee_km": 474.3700656883648,
      "latitude_deg": 6.434803032437353e-05,
      "longitude_deg": 166.13731304837995,
      "height_km": 476.0964231018371,
      "semi_major_axis_km": 6853.353454840038,
      "eccentricity": 0.0001235,
      "inclination_deg": 53.1598,
      "raan_deg": 177.2554,
      "arg_perigee_deg": 88.773,
      "mean_anomaly_deg": 271.3413,
      "mean_motion_rev_day": 15.30199536
    }
  ]
}